VIZARD-METEO (RS38S)    
1 57189U 23091Z   26138.82246141  .00010781  00000+0  31947-3 0  9996
2 57189  97.5102 207.7403 0008210 165.7159 194.4318 15.35006068160184
SITRO-AIS 6 (CHIRKIN)   
1 57192U 23091AC  26138.86155355  .00006620  00000+0  26521-3 0  9999
2 57192  97.5081 201.7676 0011414 201.3265 158.7499 15.25321656159818
SITRO-AIS 8 (ANOKHIN)   
1 57193U 23091AD  26138.81969670  .00008818  00000+0  29413-3 0  9992
2 57193  97.5069 203.9264 0010595 193.6145 166.4812 15.31262925159951
SITRO-AIS 7 (FARTUSHNIY)
1 57194U 23091AE  26138.85883900  .00006459  00000+0  26118-3 0  9996
2 57194  97.5078 201.6046 0011213 202.3854 157.6895 15.25023974159807
AVION KALUGA 650        
1 57195U 23091AF  26138.87062050  .00003597  00000+0  17004-3 0  9998
2 57195  97.5105 198.5704 0009823 204.2143 155.8632 15.20008022159575
HORS 2                  
1 57196U 23091AG  26138.82723627  .00008136  00000+0  27333-3 0  9998
2 57196  97.5100 205.4730 0008625 177.0955 183.0337 15.31074547160030
A-SEANSAT-PG1           
1 57197U 23091AH  26138.83317245  .00011248  00000+0  32443-3 0  9991
2 57197  97.5091 207.8115 0007996 172.7628 187.3733 15.35847594160202
SITRO-AIS 10 (BURDAEV)  
1 57199U 23091AK  26138.84144978  .00012447  00000+0  34131-3 0  9993
2 57199  97.5091 208.7078 0007571 166.8761 193.2681 15.37402609160252
SITRO-AIS 9 (SHCHUKIN)  
1 57201U 23091AM  26138.85888360  .00012788  00000+0  35574-3 0  9998
2 57201  97.5089 208.4778 0007766 167.3001 192.8440 15.36946887160243
UTMN 2 (RS27S)          
1 57203U 23091AP  26138.85784287  .00008751  00000+0  29209-3 0  9996
2 57203  97.5098 205.6881 0008658 172.5583 187.5788 15.31262018160050
SITRO-AIS 12 (SMIRENNIY)
1 57204U 23091AQ  26138.85498846  .00012186  00000+0  33605-3 0  9992
2 57204  97.5101 208.9229 0007563 161.6328 198.5190 15.37232070160261
SITRO-AIS 11 (SHEFFER)  
1 57208U 23091AU  26138.87624125  .00012651  00000+0  34434-3 0  9997
2 57208  97.5100 209.1732 0007487 161.2341 198.9180 15.37628319160282
H2SAT (HEINRICH HERTZ)  
1 57213U 23093A   26138.68239340  .00000005  00000+0  00000+0 0  9993
2 57213   0.0080 261.5067 0000931 204.3570  16.8778  1.00275936 10628
KUZGTU 1 (RS47S)        
1 57217U 23091AV  26138.85522706  .00008004  00000+0  28537-3 0  9991
2 57217  97.5076 203.0508 0011043 191.5702 168.5286 15.29121896159892
QIANKUN-1               
1 57422U 23103B   26138.41890983  .00017418  17914-5  21448-4 0  9992
2 57422  96.1615 185.3238 0024812 126.8261 233.5306 16.07679855162514
FENGYUN 3F              
1 57490U 23111A   26138.80153120  .00000041  00000+0  39692-4 0  9990
2 57490  98.6842 209.3559 0001342 112.5815 247.5504 14.19933451144691
HJ-2F                   
1 57519U 23116A   26138.86614417  .00004766  00000+0  21234-3 0  9994
2 57519  97.3847 144.6062 0010088 136.0794 224.1245 15.21864400154299
XRISM                   
1 57800U 23137A   26138.82024774  .00002501  00000+0  13582-3 0  9999
2 57800  31.0009 189.7898 0007585  27.3483 332.7554 15.12192427148418
METEOR-M2 4             
1 59051U 24039A   26138.85077279 -.00000012  00000+0  14312-4 0  9991
2 59051  98.6995  98.5208 0005930 252.8798 107.1731 14.22426206115093
GRBBETA                 
1 60237U 24128C   26138.21904839  .00002680  00000+0  19190-3 0  9999
2 60237  61.9902 321.3893 0044713 128.4087 232.1034 15.06369712101754
TRANSPORTER-11 OBJECT A 
1 60468U 24149A   26138.18579102  .00005336  00000+0  17318-3 0  9996
2 60468  97.3735 218.2208 0002464 358.4479   1.6754 15.32380226 97460
WARATAH SEED-1          
1 60469U 24149B   26138.52572450  .00007914  00000+0  23442-3 0  9993
2 60469  97.3693 219.0908 0001293  31.1031 329.0289 15.35137661 97565
PHISAT 2                
1 60470U 24149C   26138.17469593  .00004746  00000+0  16311-3 0  9996
2 60470  97.3761 217.5684 0001872  48.6622 311.4779 15.30584994 97401
LEMUR-2-TOMATOKECHUP    
1 60471U 24149D   26138.19911306  .00006203  00000+0  18299-3 0  9990
2 60471  97.3800 220.1850 0001526  42.7849 317.3513 15.35360297 97564
CONNECTA IOT-1          
1 60472U 24149E   26138.66935267  .00002672  00000+0  11565-3 0  9990
2 60472  97.3763 215.4639 0002901  56.2172 303.9341 15.23289335 97304
LOPEN                   
1 60473U 24149F   26138.48569637  .00008913  00000+0  23478-3 0  9995
2 60473  97.3779 221.6425 0001768  60.2512 299.8909 15.38761892 97691
ROCK                    
1 60474U 24149G   26138.21213265  .00008321  00000+0  21935-3 0  9999
2 60474  97.3777 221.3844 0001792  49.3769 310.7632 15.38760460 97653
CONNECTA IOT-3          
1 60475U 24149H   26138.49388782  .00002774  00000+0  11988-3 0  9990
2 60475  97.3738 215.0534 0003549  39.2262 320.9232 15.23299261 97283
QUBE                    
1 60476U 24149J   26138.66757229  .00014404  00000+0  29963-3 0  9991
2 60476  97.3776 224.5657 0001196  28.5522 331.5792 15.45739558 97903
