OBJECT_NAME,OBJECT_ID,EPOCH,MEAN_MOTION,ECCENTRICITY,INCLINATION,RA_OF_ASC_NODE,ARG_OF_PERICENTER,MEAN_ANOMALY,EPHEMERIS_TYPE,CLASSIFICATION_TYPE,NORAD_CAT_ID,ELEMENT_SET_NO,REV_AT_EPOCH,BSTAR,MEAN_MOTION_DOT,MEAN_MOTION_DDOT
VIZARD-METEO (RS38S),2023-091Z,2026-05-18T19:44:20.665824,15.35006068,.000821,97.5102,207.7403,165.7159,194.4318,0,U,57189,999,16018,.31947E-3,.10781E-3,0
SITRO-AIS 6 (CHIRKIN),2023-091AC,2026-05-18T20:40:38.226720,15.25321656,.0011414,97.5081,201.7676,201.3265,158.7499,0,U,57192,999,15981,.26521E-3,.662E-4,0
SITRO-AIS 8 (ANOKHIN),2023-091AD,2026-05-18T19:40:21.794880,15.31262925,.0010595,97.5069,203.9264,193.6145,166.4812,0,U,57193,999,15995,.29413E-3,.8818E-4,0
SITRO-AIS 7 (FARTUSHNIY),2023-091AE,2026-05-18T20:36:43.689600,15.25023974,.0011213,97.5078,201.6046,202.3854,157.6895,0,U,57194,999,15980,.26118E-3,.6459E-4,0
AVION KALUGA 650,2023-091AF,2026-05-18T20:53:41.611200,15.20008022,.0009823,97.5105,198.5704,204.2143,155.8632,0,U,57195,999,15957,.17004E-3,.3597E-4,0
HORS 2,2023-091AG,2026-05-18T19:51:13.213728,15.31074547,.0008625,97.5100,205.4730,177.0955,183.0337,0,U,57196,999,16003,.27333E-3,.8136E-4,0
A-SEANSAT-PG1,2023-091AH,2026-05-18T19:59:46.099680,15.35847594,.0007996,97.5091,207.8115,172.7628,187.3733,0,U,57197,999,16020,.32443E-3,.11248E-3,0
SITRO-AIS 10 (BURDAEV),2023-091AK,2026-05-18T20:11:41.260992,15.37402609,.0007571,97.5091,208.7078,166.8761,193.2681,0,U,57199,999,16025,.34131E-3,.12447E-3,0
SITRO-AIS 9 (SHCHUKIN),2023-091AM,2026-05-18T20:36:47.543040,15.36946887,.0007766,97.5089,208.4778,167.3001,192.8440,0,U,57201,999,16024,.35574E-3,.12788E-3,0
UTMN 2 (RS27S),2023-091AP,2026-05-18T20:35:17.623968,15.31262018,.0008658,97.5098,205.6881,172.5583,187.5788,0,U,57203,999,16005,.29209E-3,.8751E-4,0
SITRO-AIS 12 (SMIRENNIY),2023-091AQ,2026-05-18T20:31:11.002944,15.37232070,.0007563,97.5101,208.9229,161.6328,198.5190,0,U,57204,999,16026,.33605E-3,.12186E-3,0
SITRO-AIS 11 (SHEFFER),2023-091AU,2026-05-18T21:01:47.244000,15.37628319,.0007487,97.5100,209.1732,161.2341,198.9180,0,U,57208,999,16028,.34434E-3,.12651E-3,0
H2SAT (HEINRICH HERTZ),2023-093A,2026-05-18T16:22:38.789760,1.00275936,.0000931,0.0080,261.5067,204.3570,16.8778,0,U,57213,999,1062,0,.5E-7,0
KUZGTU 1 (RS47S),2023-091AV,2026-05-18T20:31:31.617984,15.29121896,.0011043,97.5076,203.0508,191.5702,168.5286,0,U,57217,999,15989,.28537E-3,.8004E-4,0
QIANKUN-1,2023-103B,2026-05-18T10:03:13.809312,16.07679855,.0024812,96.1615,185.3238,126.8261,233.5306,0,U,57422,999,16251,.21448E-4,.17418E-3,.17914E-5
FENGYUN 3F,2023-111A,2026-05-18T19:14:12.295680,14.19933451,.0001342,98.6842,209.3559,112.5815,247.5504,0,U,57490,999,14469,.39692E-4,.41E-6,0
HJ-2F,2023-116A,2026-05-18T20:47:14.856288,15.21864400,.0010088,97.3847,144.6062,136.0794,224.1245,0,U,57519,999,15429,.21234E-3,.4766E-4,0
XRISM,2023-137A,2026-05-18T19:41:09.404736,15.12192427,.0007585,31.0009,189.7898,27.3483,332.7554,0,U,57800,999,14841,.13582E-3,.2501E-4,0
METEOR-M2 4,2024-039A,2026-05-18T20:25:06.769056,14.22426206,.000593,98.6995,98.5208,252.8798,107.1731,0,U,59051,999,11509,.14312E-4,-.12E-6,0
GRBBETA,2024-128C,2026-05-18T05:15:25.780896,15.06369712,.0044713,61.9902,321.3893,128.4087,232.1034,0,U,60237,999,10175,.1919E-3,.268E-4,0
TRANSPORTER-11 OBJECT A,2024-149A,2026-05-18T04:27:32.344128,15.32380226,.0002464,97.3735,218.2208,358.4479,1.6754,0,U,60468,999,9746,.17318E-3,.5336E-4,0
WARATAH SEED-1,2024-149B,2026-05-18T12:37:02.596800,15.35137661,.0001293,97.3693,219.0908,31.1031,329.0289,0,U,60469,999,9756,.23442E-3,.7914E-4,0
PHISAT 2,2024-149C,2026-05-18T04:11:33.728352,15.30584994,.0001872,97.3761,217.5684,48.6622,311.4779,0,U,60470,999,9740,.16311E-3,.4746E-4,0
LEMUR-2-TOMATOKECHUP,2024-149D,2026-05-18T04:46:43.368384,15.35360297,.0001526,97.3800,220.1850,42.7849,317.3513,0,U,60471,999,9756,.18299E-3,.6203E-4,0
CONNECTA IOT-1,2024-149E,2026-05-18T16:03:52.070688,15.23289335,.0002901,97.3763,215.4639,56.2172,303.9341,0,U,60472,999,9730,.11565E-3,.2672E-4,0
LOPEN,2024-149F,2026-05-18T11:39:24.166368,15.38761892,.0001768,97.3779,221.6425,60.2512,299.8909,0,U,60473,999,9769,.23478E-3,.8913E-4,0
ROCK,2024-149G,2026-05-18T05:05:28.260960,15.38760460,.0001792,97.3777,221.3844,49.3769,310.7632,0,U,60474,999,9765,.21935E-3,.8321E-4,0
CONNECTA IOT-3,2024-149H,2026-05-18T11:51:11.907648,15.23299261,.0003549,97.3738,215.0534,39.2262,320.9232,0,U,60475,999,9728,.11988E-3,.2774E-4,0
QUBE,2024-149J,2026-05-18T16:01:18.245856,15.45739558,.0001196,97.3776,224.5657,28.5522,331.5792,0,U,60476,999,9790,.29963E-3,.14404E-3,0
